ORBCOMM FM06            
1 25118U 97084G   26179.52366277  .00001145  00000+0  34708-3 0  9993
2 25118  45.0146 358.1371 0000078 105.9389 284.0869 14.47589370496034
ORBCOMM FM04            
1 25159U 98007C   26179.96025626  .00000718  00000+0  29099-3 0  9994
2 25159 107.9626 193.6503 0041664 304.5749  55.1463 14.35760892478283
ORBCOMM FM19            
1 25415U 98046C   26179.76319264  .00000673  00000+0  25919-3 0  9991
2 25415  44.9920 188.5351 0004245 330.5516 206.2050 14.39512583458447
ORBCOMM FM20            
1 25416U 98046D   26179.75339876  .00000453  00000+0  19466-3 0  9998
2 25416  44.9921 196.6322 0002445 288.9427  71.1156 14.38078824458455
ORBCOMM FM27            
1 25481U 98053G   26179.64149194  .00000785  00000+0  29672-3 0  9996
2 25481  45.0058 280.9500 0001978 235.8359 124.2303 14.39161539451881
ORBCOMM FM32            
1 25982U 99065C   26179.55193650  .00000633  00000+0  25844-3 0  9991
2 25982  45.0144 119.4449 0004329 102.3246 257.8087 14.37144819388721
ORBCOMM FM109           
1 40086U 14040A   26179.33021940  .00000447  00000+0  13084-3 0  9997
2 40086  47.0041  38.8033 0001966 276.2708  83.7954 14.58857202635973
ORBCOMM FM110           
1 41182U 15081D   26179.81494016  .00000628  00000+0  16888-3 0  9998
2 41182  47.0029 306.4636 0002710 145.1556 214.9508 14.58897084559322
ORBCOMM FM118           
1 41183U 15081E   26179.84923329  .00000401  00000+0  12094-3 0  9990
2 41183  47.0051 306.6350 0002290  96.0948 264.0199 14.58889674559435
ORBCOMM FM112           
1 41184U 15081F   26179.78508515  .00000308  00000+0  10143-3 0  9999
2 41184  46.9973 215.4032 0004127 263.4992  96.5424 14.58915776560648
ORBCOMM FM113           
1 41185U 15081G   26179.48814361  .00000275  00000+0  94312-4 0  9990
2 41185  46.9990 217.1892 0002612 263.3683  96.6906 14.58867726560584
ORBCOMM FM108           
1 41187U 15081J   26179.86133127  .00000525  00000+0  14720-3 0  9990
2 41187  47.0044 127.0012 0003199 264.7955  95.2566 14.58887665561783
ORBCOMM FM117           
1 41188U 15081K   26179.82692665  .00000358  00000+0  11193-3 0  9999
2 41188  47.0003 125.7943 0003700 268.5112  91.5350 14.58874434561827
ORBCOMM FM116           
1 41189U 15081L   26179.53327300  .00000342  00000+0  10840-3 0  9990
2 41189  47.0008 216.9738 0000782 170.6855 189.4045 14.58894970560590
